39612,EXPRESS-AT1,2014,1436.1,1726.0,+,0.02,Active,1,GSO,Kazakhstan,Russia/USSR,Commercial,Communications,Proton,1 39612U 14010A   24271.75724817  .00000063  00000+0  00000+0 0  9991,2 39612   0.0133 237.3379 0000045 339.1957 119.1027  1.00271824 38524,1.00271824,4.5e-06,GEO
39613,EXPRESS-AT2,2014,1436.11,1427.0,+,0.02,Active,1,GSO,Kazakhstan,Russia/USSR,Commercial,Communications,Proton,1 39613U 14010B   24271.33957771 -.00000297  00000+0  00000+0 0  9993,2 39613   0.0185 216.6043 0000919  73.3300 338.7862  1.00271157 38209,1.00271157,9.19e-05,GEO
39616,AMAZONAS 4A,2014,1436.07,2938.0,P,0.05,Active,1,GSO,French Guiana,Spain,Commercial,Communications,Ariane,1 39616U 14011A   24271.51685019 -.00000268  00000+0  00000+0 0  9998,2 39616   0.0503 189.7029 0004162  11.5201 277.6481  1.00273885 38576,1.00273885,0.0004162,GEO
39617,ASTRA 5B,2014,1436.05,5724.0,+,0.09,Active,1,GSO,French Guiana,SES,Commercial,Communications,Ariane,1 39617U 14011B   24271.53605075  .00000122  00000+0  00000+0 0  9993,2 39617   0.0922 300.3185 0004039 271.1929  11.8115  1.00275135 38370,1.00275135,0.0004039,GEO
39620,COSMOS 2492 [GLONASS-M],2014,675.73,-1.0,+,65.63,Active,0,MEO,Russia,Russia/USSR,Unknown,Unknown,Unknown,1 39620U 14012A   24270.99940927 -.00000074  00000+0  00000+0 0  9992,2 39620  65.6291 335.2047 0012398 309.6111  50.3411  2.13103219 81857,2.13103219,0.0012398,MEO
39624,SJ-11-06,2014,98.59,-1.0,+,98.02,Active,1,LEO,PRC,China,Government,Technology Development,Long March,1 39624U 14014A   24272.06100250  .00001622  00000+0  34245-3 0  9996,2 39624  98.0245 309.5992 0014768 152.5348 207.6637 14.60607875559234,14.60607875,0.0014768,LEO
39634,SENTINEL-1A,2014,98.68,2300.0,+,98.18,Active,1,LEO,French Guiana,ESA,Government,Earth Observation,Soyuz,1 39634U 14016A   24272.07629443  .00000666  00000+0  15100-3 0  9996,2 39634  98.1833 277.6949 0001384  89.6406 270.4952 14.59201205558592,14.59201205,0.0001384,LEO
39635,IRNSS-1B,2014,1436.09,1432.0,+,28.79,Active,1,GSO,India,India,Government,Navigation (Global or Regional Positioning),PSLV,1 39635U 14017A   24271.54230613  .00000095  00000+0  00000+0 0  9991,2 39635  28.7938 251.0932 0020060 188.4133 177.5461  1.00272575 38497,1.00272575,0.002006,GSO
39727,LUCH-5V,2014,1436.07,1148.0,+,3.55,Active,1,GSO,Kazakhstan,Russia/USSR,Government,Communications,Proton,1 39727U 14023A   24271.76489363 -.00000282  00000+0  00000+0 0  9991,2 39727   3.5527  75.2441 0003737 153.9645 147.9621  1.00273234 38067,1.00273234,0.0003737,GSO
39728,KAZSAT-3,2014,1436.21,-1.0,+,0.02,Active,1,GSO,Kazakhstan,Kazakhstan,Commercial,Communications,Proton,1 39728U 14023B   24270.68616932  .00000046  00000+0  00000+0 0  9993,2 39728   0.0192 115.7314 0000590 283.5362 272.2187  1.00263558 36141,1.00263558,5.9e-05,GEO
39731,KAZEOSAT 1,2014,99.86,830.0,+,98.39,Active,1,LEO,French Guiana,Kazakhstan,Government,Earth Observation,Vega,1 39731U 14024A   24272.11557501  .00000767  00000+0  24694-3 0  9993,2 39731  98.3874 346.8400 0001096  90.6854 269.4461 14.42021778548237,14.42021778,0.0001096,LEO
39741,NAVSTAR 70 (USA 251),2014,717.99,1630.0,+,56.7,Active,1,MEO,USA,USA,Commercial/Military,Navigation (Global or Regional Positioning),Delta,1 39741U 14026A   24271.25046595 -.00000116  00000+0  00000+0 0  9996,2 39741  56.7000 355.9154 0032377 313.1638  46.6015  2.00561027 75943,2.00561027,0.0032377,MEO
39761,COSMOS 2496,2014,115.86,280.0,+,82.45,Active,1,LEO,Russia,Russia/USSR,Military,Communications,Rokot,1 39761U 14028A   24272.10919019  .00000048  00000+0  27636-3 0  9996,2 39761  82.4451 141.5257 0020287   8.0319 352.1081 12.42874793469687,12.42874793,0.0020287,LEO
39762,COSMOS 2497,2014,115.86,280.0,+,82.45,Active,1,LEO,Russia,Russia/USSR,Military,Communications,Rokot,1 39762U 14028B   24272.08184311  .00000053  00000+0  30879-3 0  9992,2 39762  82.4500 142.9805 0020844   2.2834 357.8337 12.42889420469672,12.4288942,0.0020844,LEO
39763,COSMOS 2498,2014,115.85,280.0,+,82.45,Active,1,LEO,Russia,Russia/USSR,Military,Communications,Rokot,1 39763U 14028C   24272.10482665  .00000061  00000+0  36991-3 0  9999,2 39763  82.4460 141.7215 0021458   2.3256 357.7920 12.42947175469681,12.42947175,0.0021458,LEO
39766,ALOS-2,2014,97.33,2120.0,+,97.92,Active,1,LEO,Japan,Japan,Government,Earth Observation,H2A,1 39766U 14029A   24272.11501985  .00005161  00000+0  69745-3 0  9990,2 39766  97.9224   7.2813 0001251 106.0754 254.0596 14.79471347558892,14.79471347,0.0001251,LEO
39767,UNIFORM 1,2014,96.63,50.0,+,97.82,Active,1,LEO,Japan,Japan,Civil,Earth Observation,H2A,1 39767U 14029B   24271.67396720  .00007429  00000+0  77205-3 0  9999,2 39767  97.8179   2.2090 0004766 223.8233 136.2607 14.90179878560554,14.90179878,0.0004766,LEO
39768,SOCRATES,2014,96.65,48.0,+,97.88,Active,1,LEO,Japan,Japan,Commercial,Technology Development,H2A,1 39768U 14029C   24271.66368481  .00005412  00000+0  56746-3 0  9999,2 39768  97.8787  12.5980 0005555 255.1900 104.8703 14.89950937560782,14.89950937,0.0005555,LEO
39769,RISING 2,2014,96.83,41.0,+,97.73,Active,1,LEO,Japan,Japan,Civil,Earth Observation,H2A,1 39769U 14029D   24272.08432381  .00013191  00000+0  14713-2 0  9998,2 39769  97.7281 343.0412 0003455 213.1017 146.9983 14.87146120559945,14.8714612,0.0003455,LEO
39773,EUTELSAT 3B,2014,1436.08,5967.0,+,0.06,Active,1,GSO,Sea Launch Platform,EUTELSAT,Commercial,Communications,Zenit,1 39773U 14030A   24271.75813238  .00000005  00000+0  00000+0 0  9993,2 39773   0.0634   8.0083 0005064 182.5109  92.5339  1.00272901 37771,1.00272901,0.0005064,GEO
40001,COSMOS 2500 [GLONASS-M],2014,675.72,1415.0,+,65.57,Active,1,MEO,Russia,Russia/USSR,Commercial/Military,Navigation (Global or Regional Positioning),Soyuz,1 40001U 14032A   24271.17743524 -.00000073  00000+0  00000+0 0  9993,2 40001  65.5662 334.9959 0008884 207.9037 152.1105  2.13105982 80076,2.13105982,0.0008884,MEO
40010,KAZEOSAT 2,2014,97.11,185.0,+,97.6,Active,1,LEO,Russia,Kazakhstan,Government,Earth Observation,Dnepr,1 40010U 14033A   24272.10566435  .00001771  00000+0  22476-3 0  9992,2 40010  97.6043 132.2614 0010558 226.0372 133.9972 14.82839968555924,14.82839968,0.0010558,LEO
40011,HODOYOSHI-4,2014,96.97,60.0,+,97.57,Active,1,LEO,Russia,Japan,Government,Technology Development,Dnepr,1 40011U 14033B   24272.08946928  .00003430  00000+0  40660-3 0  9998,2 40011  97.5714 116.7003 0023894 218.2369 141.7153 14.84951628555630,14.84951628,0.0023894,LEO
40012,UNISAT-6,2014,97.21,-1.0,+,97.71,Active,0,LEO,Russia,Italy,Unknown,Unknown,Unknown,1 40012U 14033C   24271.39643605  .00007320  00000+0  92309-3 0  9997,2 40012  97.7146  69.8139 0050726 332.4371  27.4154 14.81328858552960,14.81328858,0.0050726,LEO
40013,DEIMOS-2,2014,96.66,310.0,+,97.66,Active,1,LEO,Russia,Spain,Government,Earth Observation,Dnepr,1 40013U 14033D   24272.05811203  .00004381  00000+0  46294-3 0  9999,2 40013  97.6642 155.6052 0001030  85.6300 274.5036 14.89719026557072,14.89719026,0.000103,LEO
40014,BUGSAT-1 (TITA),2014,95.62,25.0,+,98.12,Active,1,LEO,Russia,Argentina,Commercial,Technology Development,Dnepr,1 40014U 14033E   24271.80052887  .00010298  00000+0  70087-3 0  9998,2 40014  98.1165 318.6697 0035385 147.4362 212.9056 15.05999477561072,15.05999477,0.0035385,LEO
40015,HODOYOSHI-3,2014,97.17,60.0,+,97.6,Active,1,LEO,Russia,Japan,Government,Technology Development,Dnepr,1 40015U 14033F   24272.08773579  .00004159  00000+0  52540-3 0  9991,2 40015  97.5992  92.6033 0033537 257.3913 102.3550 14.82007472554631,14.82007472,0.0033537,LEO
40016,SAUDISAT 4,2014,97.46,-1.0,+,97.68,Active,0,LEO,Russia,Saudi Arabia,Unknown,Unknown,Unknown,1 40016U 14033G   24271.73700429  .00002239  00000+0  31494-3 0  9999,2 40016  97.6779  72.5625 0045481 316.5146  43.2482 14.77605071553344,14.77605071,0.0045481,LEO
40018,APRIZESAT 9,2014,97.8,12.0,+,97.82,Active,1,LEO,Russia,USA,Commercial,Communications/Maritime Tracking,Dnepr,1 40018U 14033J   24271.95917966  .00002258  00000+0  35093-3 0  9991,2 40018  97.8182  53.5560 0069370  57.5359 303.2531 14.72401866551325,14.72401866,0.006937,LEO
40019,APRIZESAT 10,2014,98.01,12.0,+,97.88,Active,1,LEO,Russia,USA,Commercial,Communications/Maritime Tracking,Dnepr,1 40019U 14033K   24271.92299356  .00002477  00000+0  40685-3 0  9991,2 40019  97.8828  45.6209 0082166 116.5955 244.3700 14.69269232550261,14.69269232,0.0082166,LEO
40020,BRITE-CA1 (TORONTO),2014,97.95,10.0,+,97.89,Active,1,LEO,Russia,Canada,Civil,Space Science,Dnepr,1 40020U 14033L   24272.09724465  .00004159  00000+0  66398-3 0  9994,2 40020  97.8920  45.7198 0083245 123.1990 237.7234 14.70089567550098,14.70089567,0.0083245,LEO
