OBJECT_NAME,OBJECT_ID,EPOCH,MEAN_MOTION,ECCENTRICITY,INCLINATION,RA_OF_ASC_NODE,ARG_OF_PERICENTER,MEAN_ANOMALY,EPHEMERIS_TYPE,CLASSIFICATION_TYPE,NORAD_CAT_ID,ELEMENT_SET_NO,REV_AT_EPOCH,BSTAR,MEAN_MOTION_DOT,MEAN_MOTION_DDOT
EXPRESS-AT1,2014-010A,2024-09-27T18:10:26.241888,1.00271824,.0000045,0.0133,237.3379,339.1957,119.1027,0,U,39612,999,3852,0,.63E-6,0
EXPRESS-AT2,2014-010B,2024-09-27T08:08:59.514144,1.00271157,.0000919,0.0185,216.6043,73.3300,338.7862,0,U,39613,999,3820,0,-.297E-5,0
AMAZONAS 4A,2014-011A,2024-09-27T12:24:15.856416,1.00273885,.0004162,0.0503,189.7029,11.5201,277.6481,0,U,39616,999,3857,0,-.268E-5,0
ASTRA 5B,2014-011B,2024-09-27T12:51:54.784800,1.00275135,.0004039,0.0922,300.3185,271.1929,11.8115,0,U,39617,999,3837,0,.122E-5,0
COSMOS 2492 [GLONASS-M],2014-012A,2024-09-26T23:59:08.960928,2.13103219,.0012398,65.6291,335.2047,309.6111,50.3411,0,U,39620,999,8185,0,-.74E-6,0
SJ-11-06,2014-014A,2024-09-28T01:27:50.616000,14.60607875,.0014768,98.0245,309.5992,152.5348,207.6637,0,U,39624,999,55923,.34245E-3,.1622E-4,0
SENTINEL-1A,2014-016A,2024-09-28T01:49:51.838752,14.59201205,.0001384,98.1833,277.6949,89.6406,270.4952,0,U,39634,999,55859,.151E-3,.666E-5,0
IRNSS-1B,2014-017A,2024-09-27T13:00:55.249632,1.00272575,.002006,28.7938,251.0932,188.4133,177.5461,0,U,39635,999,3849,0,.95E-6,0
LUCH-5V,2014-023A,2024-09-27T18:21:26.809632,1.00273234,.0003737,3.5527,75.2441,153.9645,147.9621,0,U,39727,999,3806,0,-.282E-5,0
KAZSAT-3,2014-023B,2024-09-26T16:28:05.029248,1.00263558,.000059,0.0192,115.7314,283.5362,272.2187,0,U,39728,999,3614,0,.46E-6,0
KAZEOSAT 1,2014-024A,2024-09-28T02:46:25.680864,14.42021778,.0001096,98.3874,346.8400,90.6854,269.4461,0,U,39731,999,54823,.24694E-3,.767E-5,0
NAVSTAR 70 (USA 251),2014-026A,2024-09-27T06:00:40.258080,2.00561027,.0032377,56.7000,355.9154,313.1638,46.6015,0,U,39741,999,7594,0,-.116E-5,0
COSMOS 2496,2014-028A,2024-09-28T02:37:14.032416,12.42874793,.0020287,82.4451,141.5257,8.0319,352.1081,0,U,39761,999,46968,.27636E-3,.48E-6,0
COSMOS 2497,2014-028B,2024-09-28T01:57:51.244704,12.42889420,.0020844,82.4500,142.9805,2.2834,357.8337,0,U,39762,999,46967,.30879E-3,.53E-6,0
COSMOS 2498,2014-028C,2024-09-28T02:30:57.022560,12.42947175,.0021458,82.4460,141.7215,2.3256,357.7920,0,U,39763,999,46968,.36991E-3,.61E-6,0
ALOS-2,2014-029A,2024-09-28T02:45:37.715040,14.79471347,.0001251,97.9224,7.2813,106.0754,254.0596,0,U,39766,999,55889,.69745E-3,.5161E-4,0
UNIFORM 1,2014-029B,2024-09-27T16:10:30.766080,14.90179878,.0004766,97.8179,2.2090,223.8233,136.2607,0,U,39767,999,56055,.77205E-3,.7429E-4,0
SOCRATES,2014-029C,2024-09-27T15:55:42.367584,14.89950937,.0005555,97.8787,12.5980,255.1900,104.8703,0,U,39768,999,56078,.56746E-3,.5412E-4,0
RISING 2,2014-029D,2024-09-28T02:01:25.577184,14.87146120,.0003455,97.7281,343.0412,213.1017,146.9983,0,U,39769,999,55994,.14713E-2,.13191E-3,0
EUTELSAT 3B,2014-030A,2024-09-27T18:11:42.637632,1.00272901,.0005064,0.0634,8.0083,182.5109,92.5339,0,U,39773,999,3777,0,.5E-7,0
COSMOS 2500 [GLONASS-M],2014-032A,2024-09-27T04:15:30.404736,2.13105982,.0008884,65.5662,334.9959,207.9037,152.1105,0,U,40001,999,8007,0,-.73E-6,0
KAZEOSAT 2,2014-033A,2024-09-28T02:32:09.399840,14.82839968,.0010558,97.6043,132.2614,226.0372,133.9972,0,U,40010,999,55592,.22476E-3,.1771E-4,0
HODOYOSHI-4,2014-033B,2024-09-28T02:08:50.145792,14.84951628,.0023894,97.5714,116.7003,218.2369,141.7153,0,U,40011,999,55563,.4066E-3,.343E-4,0
UNISAT-6,2014-033C,2024-09-27T09:30:52.074720,14.81328858,.0050726,97.7146,69.8139,332.4371,27.4154,0,U,40012,999,55296,.92309E-3,.732E-4,0
DEIMOS-2,2014-033D,2024-09-28T01:23:40.879392,14.89719026,.000103,97.6642,155.6052,85.6300,274.5036,0,U,40013,999,55707,.46294E-3,.4381E-4,0
BUGSAT-1 (TITA),2014-033E,2024-09-27T19:12:45.694368,15.05999477,.0035385,98.1165,318.6697,147.4362,212.9056,0,U,40014,999,56107,.70087E-3,.10298E-3,0
HODOYOSHI-3,2014-033F,2024-09-28T02:06:20.372256,14.82007472,.0033537,97.5992,92.6033,257.3913,102.3550,0,U,40015,999,55463,.5254E-3,.4159E-4,0
SAUDISAT 4,2014-033G,2024-09-27T17:41:17.170656,14.77605071,.0045481,97.6779,72.5625,316.5146,43.2482,0,U,40016,999,55334,.31494E-3,.2239E-4,0
APRIZESAT 9,2014-033J,2024-09-27T23:01:13.122624,14.72401866,.006937,97.8182,53.5560,57.5359,303.2531,0,U,40018,999,55132,.35093E-3,.2258E-4,0
APRIZESAT 10,2014-033K,2024-09-27T22:09:06.643584,14.69269232,.0082166,97.8828,45.6209,116.5955,244.3700,0,U,40019,999,55026,.40685E-3,.2477E-4,0
BRITE-CA1 (TORONTO),2014-033L,2024-09-28T02:20:01.937760,14.70089567,.0083245,97.8920,45.7198,123.1990,237.7234,0,U,40020,999,55009,.66398E-3,.4159E-4,0
